SIRION PATHFINDER-2     
1 43759U 18099B   26160.38553560  .00003754  00000+0  20742-3 0  9991
2 43759  97.4257 209.6286 0007772 336.7135  23.3744 15.14480438411443
CORVUS BC4              
1 43767U 18099K   26160.38153810  .00003736  00000+0  21847-3 0  9991
2 43767  97.4073 203.5906 0009101  38.7659 321.4224 15.12433449411227
M2 PATHFINDER           
1 45727U 20037E   26160.46567137  .00002333  00000+0  17036-3 0  9991
2 45727  97.8161 351.6108 0011758 171.8469 188.2950 15.04644400324337
NETSAT-4                
1 46504U 20068U   26160.47610339  .00016384  00000+0  36594-3 0  9994
2 46504  97.8610 168.0984 0004854  10.1265 350.0078 15.43608355314588
NETSAT-3                
1 46505U 20068V   26160.47642704  .00016404  00000+0  38131-3 0  9998
2 46505  97.8659 166.3250 0005296  28.5044 331.6490 15.42410894314499
NETSAT-1                
1 46506U 20068W   26160.44098179  .00011525  00000+0  34762-3 0  9992
2 46506  97.8747 160.7089 0005936  54.3236 305.8557 15.34458982314114
NETSAT-2                
1 46507U 20068X   26160.00870839  .00019387  00000+0  40371-3 0  9993
2 46507  97.8623 167.4592 0004566  48.2139 311.9499 15.45645345314478
GREENCUBE (IO-117)      
1 53109U 22080E   26152.46502029 -.00000003  00000+0  00000+0 0  9996
2 53109  70.1435 303.7143 0008869 293.3663  66.6064  6.42583280 91055
SITRO-AIS 5 (KATYS)     
1 57176U 23091L   26160.48028183  .00010984  00000+0  38836-3 0  9992
2 57176  97.5064 224.3072 0012728 127.2913 232.9489 15.29277023163166
SITRO-AIS 6 (CHIRKIN)   
1 57192U 23091AC  26160.50710819  .00009431  00000+0  37105-3 0  9990
2 57192  97.5073 223.4940 0012994 130.1824 230.0554 15.25787932163115
SITRO-AIS 8 (ANOKHIN)   
1 57193U 23091AD  26160.51069828  .00012959  00000+0  42190-3 0  9998
2 57193  97.5061 225.8955 0011846 123.3287 236.9091 15.31922554163273
SITRO-AIS 7 (FARTUSHNIY)
1 57194U 23091AE  26160.50869404  .00009094  00000+0  36125-3 0  9993
2 57194  97.5070 223.3244 0012811 131.0270 229.2077 15.25478306163104
SITRO-AIS 10 (BURDAEV)  
1 57199U 23091AK  26160.50929735  .00018037  00000+0  47882-3 0  9991
2 57199  97.5083 230.8696 0007892 102.8746 257.3381 15.38316401163587
SITRO-AIS 9 (SHCHUKIN)  
1 57201U 23091AM  26160.46821116  .00017740  00000+0  47834-3 0  9991
2 57201  97.5081 230.5636 0008133 102.9632 257.2521 15.37835620163565
SITRO-AIS 12 (SMIRENNIY)
1 57204U 23091AQ  26160.52534486  .00017265  00000+0  46130-3 0  9992
2 57204  97.5094 231.0842 0007723  97.8271 262.3850 15.38127778163596
SITRO-AIS 11 (SHEFFER)  
1 57208U 23091AU  26160.47582701  .00018737  00000+0  49364-3 0  9990
2 57208  97.5093 231.2753 0007627  97.9787 262.2324 15.38544533163607
SITRO-AIS 25            
1 59066U 24039R   26160.53723753  .00003154  00000+0  24694-3 0  9994
2 59066  95.3912 229.8356 0144440 355.6933   4.3038 14.93473483123586
SITRO-AIS 26            
1 59067U 24039S   26160.53756863  .00003081  00000+0  24234-3 0  9992
2 59067  95.3913 229.7351 0144789 356.2679   3.7453 14.93270252123574
SITRO-AIS 27            
1 59068U 24039T   26160.50995307  .00002557  00000+0  19991-3 0  9999
2 59068  95.3913 229.9844 0143871 354.9500   5.0265 14.93686770123597
SITRO-AIS 28            
1 59071U 24039U   26160.48756884  .00002594  00000+0  20258-3 0  9994
2 59071  95.3917 230.0158 0143731 354.9296   5.0464 14.93722692123598
GRBBETA                 
1 60237U 24128C   26160.52120618  .00003281  00000+0  23080-3 0  9994
2 60237  61.9898 243.1615 0041674 133.0330 227.4266 15.06588239105112
OOV-CUBE (TUBSAT-30)    
1 60240U 24128F   26160.53649286  .00002156  00000+0  17279-3 0  9999
2 60240  61.9950 252.2499 0045584 132.0465 228.4520 15.02741636104962
ROBUSTA-3A (MEDITERRAN*)
1 60243U 24128J   26160.52772933  .00006234  00000+0  37064-3 0  9992
2 60243  61.9859 235.3282 0042181 126.5118 233.9874 15.11585372105268
LASARSAT                
1 62391U 24247Q   26160.41706010  .00031151  00000+0  63095-3 0  9990
2 62391  44.9749 305.8624 0008377 288.2442  71.7536 15.45882865 82116
CROCUBE                 
1 62394U 24247T   26160.35968830  .00034955  00000+0  66382-3 0  9993
2 62394  44.9723 303.6436 0008210 291.5669  68.4347 15.47699644 82130
FORESAIL-1 PRIME        
1 66778U 25276DS  26159.16737006  .00004435  00000+0  21751-3 0  9993
2 66778  97.4199 232.6039 0003714 122.1307 238.0288 15.18619338 29031
KNACKSAT-2              
1 67683U 98067XZ  26160.21299138  .00044471  00000+0  55732-3 0  9994
2 67683  51.6310 334.5675 0010139 180.3402 179.7586 15.59248117 19032
